OBJECT_NAME,OBJECT_ID,EPOCH,MEAN_MOTION,ECCENTRICITY,INCLINATION,RA_OF_ASC_NODE,ARG_OF_PERICENTER,MEAN_ANOMALY,EPHEMERIS_TYPE,CLASSIFICATION_TYPE,NORAD_CAT_ID,ELEMENT_SET_NO,REV_AT_EPOCH,BSTAR,MEAN_MOTION_DOT,MEAN_MOTION_DDOT
GALAXY 16 (G-16),2006-023A,2026-06-06T16:25:19.562016,1.00272148,.0002781,0.0214,202.0425,232.6902,327.7010,0,U,29236,999,7286,0,-.113E-5,0
EUTELSAT 33F,2006-032A,2026-06-06T20:28:28.715232,1.00274184,.000352,1.6341,82.3601,349.3220,163.8111,0,U,29270,999,4720,0,.169E-5,0
JCSAT-3A,2006-033A,2026-06-06T21:22:00.064128,1.00271386,.0002174,0.0157,304.2567,139.7915,259.7567,0,U,29272,999,4763,0,-.331E-5,0
KOREASAT 5 (MUGUNGWHA 5),2006-034A,2026-06-06T20:51:13.882752,1.00273119,.0001409,1.7578,83.1099,33.9982,204.0427,0,U,29349,999,4121,0,-.344E-5,0
DIRECTV 9S,2006-043A,2026-06-06T19:50:07.141056,1.00271768,.0005122,2.3933,81.0270,5.4636,5.0953,0,U,29494,999,5128,0,-.1E-5,0
OPTUS D1,2006-043B,2026-06-06T19:19:40.060128,1.00272053,.0003724,3.0074,79.7833,351.9866,265.3677,0,U,29495,999,7201,0,-.169E-5,0
BADR-4,2006-051A,2026-06-04T17:50:03.090912,1.00450212,.00078927,1.9707,81.2738,161.5231,306.4291,0,U,29526,999,5114,0,.167E-5,0
WILDBLUE-1,2006-054A,2026-06-06T14:39:19.036800,1.00272440,.0001617,2.7751,80.6158,353.3110,289.7222,0,U,29643,999,5368,0,-.36E-6,0
SKYNET 5A,2007-007B,2026-06-06T20:27:21.666240,1.00272978,.0003928,5.2756,73.8639,6.6345,216.8195,0,U,30794,999,7059,0,-.258E-5,0
ANIK F3,2007-009A,2026-06-06T14:37:11.741088,1.00271032,.0002762,1.1693,83.9780,352.2456,279.3723,0,U,31102,999,4645,0,.13E-6,0
ASTRA 1L,2007-016A,2026-06-06T20:12:05.033952,1.00272484,.0005449,1.2943,81.6655,4.1214,87.9997,0,U,31306,999,4488,0,-.17E-5,0
GALAXY 17 (G-17),2007-016B,2026-06-06T19:54:29.223360,1.00272335,.0004908,2.9452,80.0314,13.7858,15.0570,0,U,31307,999,6970,0,-.193E-5,0
INTELSAT 11 (IS-11),2007-044B,2026-06-06T15:40:02.353728,0.99053769,.0001773,3.5373,78.7969,78.9029,144.4742,0,U,32253,999,6834,0,-.19E-5,0
WGS F1 (USA 195),2007-046A,2026-06-06T16:41:23.277120,1.00270077,.0000508,0.0473,93.7979,313.9705,55.2097,0,U,32258,999,5223,0,-.254E-5,0
SKYNET 5B,2007-056B,2026-06-06T20:56:53.528064,1.00269872,.0003986,5.2271,73.6272,356.2090,164.7534,0,U,32294,999,6809,0,.153E-5,0
ASTRA 4A,2007-057A,2026-06-06T20:20:21.992928,1.00274091,.0002571,0.0237,305.9121,136.1506,123.1127,0,U,32299,999,5154,0,.47E-6,0
HORIZONS-2,2007-063B,2026-06-06T19:57:58.886784,1.00272694,.0004092,2.5747,80.7529,353.9053,46.3121,0,U,32388,999,6771,0,-.24E-5,0
THURAYA-3,2008-001A,2026-06-06T20:24:23.091264,1.00009377,.0001101,5.9714,35.7809,150.1014,101.3033,0,U,32404,999,6738,0,-.129E-5,0
THOR 5,2008-006A,2026-06-06T18:36:08.383392,1.00272871,.0002651,0.0433,257.4698,186.3522,89.6529,0,U,32487,999,6721,0,.5E-7,0
AMC-14,2008-011A,2026-06-05T16:13:44.125824,1.00353185,.00458262,23.9919,20.6590,6.6193,172.4980,0,U,32708,999,6805,0,-.14E-6,0
DIRECTV 11,2008-013A,2026-06-06T14:42:33.727104,1.00271783,.0000564,0.0319,184.3775,219.2224,332.8948,0,U,32729,999,4548,0,-.112E-5,0
ICO G1,2008-016A,2026-06-06T14:44:33.536256,1.00272760,.0002287,5.5310,36.1715,25.9466,321.1873,0,U,32763,999,6643,0,-.16E-5,0
VINASAT-1,2008-018A,2026-06-06T20:56:35.868768,1.00272635,.0001317,0.0120,321.1167,118.1728,262.0993,0,U,32767,999,6648,0,-.314E-5,0
STAR ONE C2,2008-018B,2026-06-06T20:00:28.648224,1.00273582,.0002763,1.2138,82.5592,355.8104,51.9990,0,U,32768,999,6655,0,-.263E-5,0
AMOS-3,2008-022A,2026-06-06T20:27:58.762080,1.00471023,.0001907,0.4278,86.4049,60.6646,86.5754,0,U,32794,999,8223,0,.169E-5,0
GALAXY 18 (G-18),2008-024A,2026-06-06T18:01:12.461088,1.00272583,.0003223,0.0209,62.8204,22.8084,316.8325,0,U,32951,999,4574,0,.39E-6,0
ZHONGXING-9,2008-028A,2026-06-05T21:36:21.585312,1.00269615,.000485,0.7398,85.4966,330.8361,254.4515,0,U,33051,999,6592,0,-.236E-5,0
SKYNET 5C,2008-030A,2026-06-06T16:48:37.583136,1.00270837,.0004201,3.7614,77.1643,8.1227,44.2061,0,U,33055,999,6585,0,-.126E-5,0
TURKSAT 3A,2008-030B,2026-06-06T18:50:48.756192,1.00272314,.0005324,0.0710,83.4958,343.2180,153.1697,0,U,33056,999,5225,0,.16E-5,0
INTELSAT 25 (IS-25),2008-034A,2026-06-06T19:24:09.628992,0.99021098,.0001908,2.6808,80.4536,28.1893,245.5398,0,U,33153,999,6558,0,-.212E-5,0
ECHOSTAR 11,2008-035A,2026-06-06T14:39:41.500800,1.00271833,.0002536,0.9769,84.3031,337.7993,303.0530,0,U,33207,999,5110,0,-.44E-6,0
SUPERBIRD-C2,2008-038A,2026-06-06T20:57:43.260768,1.00272434,.0006049,2.3336,81.3921,21.2215,243.0997,0,U,33274,999,10562,0,-.292E-5,0
