GALAXY 16 (G-16)        
1 29236U 06023A   26157.68425419 -.00000113  00000+0  00000+0 0  9997
2 29236   0.0214 202.0425 0002781 232.6902 327.7010  1.00272148 72866
EUTELSAT 33F            
1 29270U 06032A   26157.85311013  .00000169  00000+0  00000+0 0  9998
2 29270   1.6341  82.3601 0003520 349.3220 163.8111  1.00274184 47201
JCSAT-3A                
1 29272U 06033A   26157.89027852 -.00000331  00000+0  00000+0 0  9992
2 29272   0.0157 304.2567 0002174 139.7915 259.7567  1.00271386 47632
KOREASAT 5 (MUGUNGWHA 5)
1 29349U 06034A   26157.86891068 -.00000344  00000+0  00000+0 0  9997
2 29349   1.7578  83.1099 0001409  33.9982 204.0427  1.00273119 41216
DIRECTV 9S              
1 29494U 06043A   26157.82647154 -.00000100  00000+0  00000+0 0  9999
2 29494   2.3933  81.0270 0005122   5.4636   5.0953  1.00271768 51282
OPTUS D1                
1 29495U 06043B   26157.80532477 -.00000169  00000+0  00000+0 0  9994
2 29495   3.0074  79.7833 0003724 351.9866 265.3677  1.00272053 72012
BADR-4                  
1 29526U 06051A   26155.74309133  .00000167  00000+0  00000+0 0  9997
2 29526   1.9707  81.2738 0007892 161.5231 306.4291  1.00450212 51145
WILDBLUE-1              
1 29643U 06054A   26157.61063700 -.00000036  00000+0  00000+0 0  9991
2 29643   2.7751  80.6158 0001617 353.3110 289.7222  1.00272440 53681
SKYNET 5A               
1 30794U 07007B   26157.85233410 -.00000258  00000+0  00000+0 0  9998
2 30794   5.2756  73.8639 0003928   6.6345 216.8195  1.00272978 70591
ANIK F3                 
1 31102U 07009A   26157.60916367  .00000013  00000+0  00000+0 0  9994
2 31102   1.1693  83.9780 0002762 352.2456 279.3723  1.00271032 46456
ASTRA 1L                
1 31306U 07016A   26157.84172493 -.00000170  00000+0  00000+0 0  9993
2 31306   1.2943  81.6655 0005449   4.1214  87.9997  1.00272484 44880
GALAXY 17 (G-17)        
1 31307U 07016B   26157.82950490 -.00000193  00000+0  00000+0 0  9998
2 31307   2.9452  80.0314 0004908  13.7858  15.0570  1.00272335 69700
INTELSAT 11 (IS-11)     
1 32253U 07044B   26157.65280502 -.00000190  00000+0  00000+0 0  9998
2 32253   3.5373  78.7969 0001773  78.9029 144.4742  0.99053769 68342
WGS F1 (USA 195)        
1 32258U 07046A   26157.69540830 -.00000254  00000+0  00000+0 0  9993
2 32258   0.0473  93.7979 0000508 313.9705  55.2097  1.00270077 52235
SKYNET 5B               
1 32294U 07056B   26157.87284176  .00000153  00000+0  00000+0 0  9999
2 32294   5.2271  73.6272 0003986 356.2090 164.7534  1.00269872 68095
ASTRA 4A                
1 32299U 07057A   26157.84747677  .00000047  00000+0  00000+0 0  9994
2 32299   0.0237 305.9121 0002571 136.1506 123.1127  1.00274091 51543
HORIZONS-2              
1 32388U 07063B   26157.83193156 -.00000240  00000+0  00000+0 0  9992
2 32388   2.5747  80.7529 0004092 353.9053  46.3121  1.00272694 67714
THURAYA-3               
1 32404U 08001A   26157.85026726 -.00000129  00000+0  00000+0 0  9990
2 32404   5.9714  35.7809 0001101 150.1014 101.3033  1.00009377 67380
THOR 5                  
1 32487U 08006A   26157.77509703  .00000005  00000+0  00000+0 0  9990
2 32487   0.0433 257.4698 0002651 186.3522  89.6529  1.00272871 67211
AMC-14                  
1 32708U 08011A   26156.67620516 -.00000014  00000+0  00000+0 0  9997
2 32708  23.9919  20.6590 0045826   6.6193 172.4980  1.00353185 68053
DIRECTV 11              
1 32729U 08013A   26157.61289036 -.00000112  00000+0  00000+0 0  9994
2 32729   0.0319 184.3775 0000564 219.2224 332.8948  1.00271783 45487
ICO G1                  
1 32763U 08016A   26157.61427704 -.00000160  00000+0  00000+0 0  9994
2 32763   5.5310  36.1715 0002287  25.9466 321.1873  1.00272760 66430
VINASAT-1               
1 32767U 08018A   26157.87263737 -.00000314  00000+0  00000+0 0  9993
2 32767   0.0120 321.1167 0001317 118.1728 262.0993  1.00272635 66482
STAR ONE C2             
1 32768U 08018B   26157.83366491 -.00000263  00000+0  00000+0 0  9994
2 32768   1.2138  82.5592 0002763 355.8104  51.9990  1.00273582 66551
AMOS-3                  
1 32794U 08022A   26157.85276345  .00000169  00000+0  00000+0 0  9992
2 32794   0.4278  86.4049 0001907  60.6646  86.5754  1.00471023 82232
GALAXY 18 (G-18)        
1 32951U 08024A   26157.75083867  .00000039  00000+0  00000+0 0  9999
2 32951   0.0209  62.8204 0003223  22.8084 316.8325  1.00272583 45745
ZHONGXING-9             
1 33051U 08028A   26156.90024983 -.00000236  00000+0  00000+0 0  9995
2 33051   0.7398  85.4966 0004850 330.8361 254.4515  1.00269615 65928
SKYNET 5C               
1 33055U 08030A   26157.70043499 -.00000126  00000+0  00000+0 0  9992
2 33055   3.7614  77.1643 0004201   8.1227  44.2061  1.00270837 65853
TURKSAT 3A              
1 33056U 08030B   26157.78528653  .00000160  00000+0  00000+0 0  9998
2 33056   0.0710  83.4958 0005324 343.2180 153.1697  1.00272314 52255
INTELSAT 25 (IS-25)     
1 33153U 08034A   26157.80844478 -.00000212  00000+0  00000+0 0  9998
2 33153   2.6808  80.4536 0001908  28.1893 245.5398  0.99021098 65584
ECHOSTAR 11             
1 33207U 08035A   26157.61089700 -.00000044  00000+0  00000+0 0  9990
2 33207   0.9769  84.3031 0002536 337.7993 303.0530  1.00271833 51100
SUPERBIRD-C2            
1 33274U 08038A   26157.87341737 -.00000292  00000+0  00000+0 0  9991
2 33274   2.3336  81.3921 0006049  21.2215 243.0997  1.00272434105625
